STARLINK-3283           
1 50179U 21125Z   26068.75793132 -.00000280  00000+0  48227-6 0  9991
2 50179  53.2162 248.8158 0001389  85.0963 275.0188 15.08840028236616
CHAMRAN-1               
1 61072U 24165B   26068.91010681  .00007263  00000+0  44320-3 0  9995
2 61072  64.0789   8.4365 0045019 310.8781  48.8437 15.10235792 81665
